{
  "norad_id": 65867,
  "name": "STARLINK-35456",
  "history": [
    {
      "epoch": "2026-03-28T17:43:25.426272Z",
      "apogee_km": 476.12855216052503,
      "perigee_km": 474.3284471783809,
      "latitude_deg": 2.683397093874805e-05,
      "longitude_deg": 113.57135362323065,
      "height_km": 475.8291526851827,
      "semi_major_axis_km": 6853.365499669452,
      "eccentricity": 0.00013133,
      "inclination_deg": 53.1585,
      "raan_deg": 205.5819,
      "arg_perigee_deg": 70.712,
      "mean_anomaly_deg": 289.4023,
      "mean_motion_rev_day": 15.30195502
    }
  ]
}